{
  "type": "FeatureCollection",
  "features": [
    {
      "type": "Feature",
      "properties": {
        "norad_id": 33613,
        "name": "FENGYUN 1C DEB",
        "group": "fengyun-1c-debris",
        "lat": -56.0208565175272,
        "lon": -123.88808011941036,
        "alt_km": 809.3732038297103,
        "timestamp": "2025-12-23T11:34:48.449231+00:00",
        "meta_object_name": "FENGYUN 1C DEB",
        "meta_object_id": "1999-025DCW",
        "meta_epoch": "2025-12-16T22:39:46.027872",
        "meta_mean_motion": 14.33243029,
        "meta_eccentricity": 0.00302029,
        "meta_inclination": 98.6973,
        "meta_ra_of_asc_node": 62.6736,
        "meta_arg_of_pericenter": 76.3387,
        "meta_mean_anomaly": 284.1157,
        "meta_ephemeris_type": 0,
        "meta_classification_type": "U",
        "meta_norad_cat_id": 33613,
        "meta_element_set_no": 999,
        "meta_rev_at_epoch": 64570,
        "meta_bstar": 0.001526734,
        "meta_mean_motion_dot": 4.177e-05,
        "meta_mean_motion_ddot": 0,
        "tle_line1": "1 33613U 99025DCW 25350.94428273  .00004177  00000+0  15267-2 0  9996",
        "tle_line2": "2 33613  98.6973  62.6736 0030202  76.3387 284.1157 14.33243029645702"
      },
      "geometry": {
        "type": "Point",
        "coordinates": [
          -123.88808011941036,
          -56.0208565175272
        ]
      }
    },
    {
      "type": "Feature",
      "properties": {
        "norad_id": 33618,
        "name": "FENGYUN 1C DEB",
        "group": "fengyun-1c-debris",
        "lat": 16.470311319910728,
        "lon": -92.28701603941906,
        "alt_km": 620.0717444214051,
        "timestamp": "2025-12-23T11:34:48.449240+00:00",
        "meta_object_name": "FENGYUN 1C DEB",
        "meta_object_id": "1999-025DDB",
        "meta_epoch": "2025-12-21T11:13:26.263776",
        "meta_mean_motion": 14.62206729,
        "meta_eccentricity": 0.01650147,
        "meta_inclination": 98.5304,
        "meta_ra_of_asc_node": 83.0891,
        "meta_arg_of_pericenter": 113.5029,
        "meta_mean_anomaly": 248.3608,
        "meta_ephemeris_type": 0,
        "meta_classification_type": "U",
        "meta_norad_cat_id": 33618,
        "meta_element_set_no": 999,
        "meta_rev_at_epoch": 96911,
        "meta_bstar": 0.00057976431,
        "meta_mean_motion_dot": 3.493e-05,
        "meta_mean_motion_ddot": 0,
        "tle_line1": "1 33618U 99025DDB 25355.46766509  .00003493  00000+0  57976-3 0  9994",
        "tle_line2": "2 33618  98.5304  83.0891 0165014 113.5029 248.3608 14.62206729969115"
      },
      "geometry": {
        "type": "Point",
        "coordinates": [
          -92.28701603941906,
          16.470311319910728
        ]
      }
    },
    {
      "type": "Feature",
      "properties": {
        "norad_id": 33619,
        "name": "FENGYUN 1C DEB",
        "group": "fengyun-1c-debris",
        "lat": 62.21154691949081,
        "lon": -95.93038746798786,
        "alt_km": 834.5173021395767,
        "timestamp": "2025-12-23T11:34:48.449249+00:00",
        "meta_object_name": "FENGYUN 1C DEB",
        "meta_object_id": "1999-025DDC",
        "meta_epoch": "2025-12-22T11:19:13.450944",
        "meta_mean_motion": 14.17552951,
        "meta_eccentricity": 0.00502437,
        "meta_inclination": 98.8607,
        "meta_ra_of_asc_node": 65.8437,
        "meta_arg_of_pericenter": 17.8745,
        "meta_mean_anomaly": 342.4183,
        "meta_ephemeris_type": 0,
        "meta_classification_type": "U",
        "meta_norad_cat_id": 33619,
        "meta_element_set_no": 999,
        "meta_rev_at_epoch": 63762,
        "meta_bstar": 0.0012593794,
        "meta_mean_motion_dot": 2.545e-05,
        "meta_mean_motion_ddot": 0,
        "tle_line1": "1 33619U 99025DDC 25356.47168346  .00002545  00000+0  12594-2 0  9995",
        "tle_line2": "2 33619  98.8607  65.8437 0050243  17.8745 342.4183 14.17552951637620"
      },
      "geometry": {
        "type": "Point",
        "coordinates": [
          -95.93038746798786,
          62.21154691949081
        ]
      }
    },
    {
      "type": "Feature",
      "properties": {
        "norad_id": 33621,
        "name": "FENGYUN 1C DEB",
        "group": "fengyun-1c-debris",
        "lat": 77.86472926938686,
        "lon": 69.10954284344226,
        "alt_km": 1016.1649751834557,
        "timestamp": "2025-12-23T11:34:48.449257+00:00",
        "meta_object_name": "FENGYUN 1C DEB",
        "meta_object_id": "1999-025DDE",
        "meta_epoch": "2025-12-10T20:17:14.702784",
        "meta_mean_motion": 14.19482835,
        "meta_eccentricity": 0.02846988,
        "meta_inclination": 98.1391,
        "meta_ra_of_asc_node": 195.7496,
        "meta_arg_of_pericenter": 300.0128,
        "meta_mean_anomaly": 57.3079,
        "meta_ephemeris_type": 0,
        "meta_classification_type": "U",
        "meta_norad_cat_id": 33621,
        "meta_element_set_no": 999,
        "meta_rev_at_epoch": 64217,
        "meta_bstar": 0.00099524636,
        "meta_mean_motion_dot": 3.099e-05,
        "meta_mean_motion_ddot": 0,
        "tle_line1": "1 33621U 99025DDE 25344.84530906  .00003099  00000+0  99525-3 0  9996",
        "tle_line2": "2 33621  98.1391 195.7496 0284698 300.0128  57.3079 14.19482835642176"
      },
      "geometry": {
        "type": "Point",
        "coordinates": [
          69.10954284344226,
          77.86472926938686
        ]
      }
    },
    {
      "type": "Feature",
      "properties": {
        "norad_id": 33625,
        "name": "FENGYUN 1C DEB",
        "group": "fengyun-1c-debris",
        "lat": 30.64599194298093,
        "lon": -66.25325401676533,
        "alt_km": 576.6250189696739,
        "timestamp": "2025-12-23T11:34:48.449266+00:00",
        "meta_object_name": "FENGYUN 1C DEB",
        "meta_object_id": "1999-025DDJ",
        "meta_epoch": "2025-12-22T18:29:10.172832",
        "meta_mean_motion": 14.61162738,
        "meta_eccentricity": 0.02254632,
        "meta_inclination": 98.6202,
        "meta_ra_of_asc_node": 107.8479,
        "meta_arg_of_pericenter": 104.3386,
        "meta_mean_anomaly": 258.2958,
        "meta_ephemeris_type": 0,
        "meta_classification_type": "U",
        "meta_norad_cat_id": 33625,
        "meta_element_set_no": 999,
        "meta_rev_at_epoch": 61537,
        "meta_bstar": 0.0010940286,
        "meta_mean_motion_dot": 7.684e-05,
        "meta_mean_motion_ddot": 0,
        "tle_line1": "1 33625U 99025DDJ 25356.77025663  .00007684  00000+0  10940-2 0  9991",
        "tle_line2": "2 33625  98.6202 107.8479 0225463 104.3386 258.2958 14.61162738615371"
      },
      "geometry": {
        "type": "Point",
        "coordinates": [
          -66.25325401676533,
          30.64599194298093
        ]
      }
    },
    {
      "type": "Feature",
      "properties": {
        "norad_id": 33630,
        "name": "FENGYUN 1C DEB",
        "group": "fengyun-1c-debris",
        "lat": 64.92345434576063,
        "lon": 84.45157162197602,
        "alt_km": 741.3070510674552,
        "timestamp": "2025-12-23T11:34:48.449275+00:00",
        "meta_object_name": "FENGYUN 1C DEB",
        "meta_object_id": "1999-025DDP",
        "meta_epoch": "2025-12-16T13:17:07.494144",
        "meta_mean_motion": 14.17726795,
        "meta_eccentricity": 0.01350341,
        "meta_inclination": 98.616,
        "meta_ra_of_asc_node": 96.6346,
        "meta_arg_of_pericenter": 57.1725,
        "meta_mean_anomaly": 304.237,
        "meta_ephemeris_type": 0,
        "meta_classification_type": "U",
        "meta_norad_cat_id": 33630,
        "meta_element_set_no": 999,
        "meta_rev_at_epoch": 64465,
        "meta_bstar": 0.00032109765,
        "meta_mean_motion_dot": 6.74e-06,
        "meta_mean_motion_ddot": 0,
        "tle_line1": "1 33630U 99025DDP 25350.55355896  .00000674  00000+0  32110-3 0  9997",
        "tle_line2": "2 33630  98.6160  96.6346 0135034  57.1725 304.2370 14.17726795644657"
      },
      "geometry": {
        "type": "Point",
        "coordinates": [
          84.45157162197602,
          64.92345434576063
        ]
      }
    },
    {
      "type": "Feature",
      "properties": {
        "norad_id": 33633,
        "name": "FENGYUN 1C DEB",
        "group": "fengyun-1c-debris",
        "lat": 7.840984061241135,
        "lon": -86.74915324569524,
        "alt_km": 791.5296477029451,
        "timestamp": "2025-12-23T11:34:48.449285+00:00",
        "meta_object_name": "FENGYUN 1C DEB",
        "meta_object_id": "1999-025DDS",
        "meta_epoch": "2025-12-20T05:05:42.485856",
        "meta_mean_motion": 14.19397127,
        "meta_eccentricity": 0.00829513,
        "meta_inclination": 99.057,
        "meta_ra_of_asc_node": 88.6497,
        "meta_arg_of_pericenter": 129.8844,
        "meta_mean_anomaly": 260.3067,
        "meta_ephemeris_type": 0,
        "meta_classification_type": "U",
        "meta_norad_cat_id": 33633,
        "meta_element_set_no": 999,
        "meta_rev_at_epoch": 90817,
        "meta_bstar": 0.0014541583,
        "meta_mean_motion_dot": 3.12e-05,
        "meta_mean_motion_ddot": 0,
        "tle_line1": "1 33633U 99025DDS 25354.21229729  .00003120  00000+0  14542-2 0  9999",
        "tle_line2": "2 33633  99.0570  88.6497 0082951 129.8844 260.3067 14.19397127908176"
      },
      "geometry": {
        "type": "Point",
        "coordinates": [
          -86.74915324569524,
          7.840984061241135
        ]
      }
    }
  ]
}